0 SL-12 R/B(2)
1 20413U 83020D   13282.93384698 -.00001855  00000-0  00000+0 0  4319
2 20413 039.0844 311.7325 8824565 088.4098 356.3428 00.24690524 14533
0 SL-12 R/B(2)
1 20413U 83020D   13287.00478113 -.00002601  00000-0  00000+0 0  4329
2 20413 039.0837 311.2431 8820585 088.7531 359.0464 00.24735775 14540
0 SL-12 R/B(2)
1 20413U 83020D   13291.04633248 -.00002847  00000-0  00000+0 0  4333
2 20413 039.0603 310.7299 8823814 089.2113 358.4519 00.24715343 14551
0 SL-12 R/B(2)
1 20413U 83020D   13295.08488956 -.00002387  00000-0  00000+0 0  4345
2 20413 039.0499 310.4529 8821182 089.4737 357.8651 00.24704257 14560
